NORAD_CAT_ID,OBJECT_NAME,OBJECT_TYPE,EPOCH,MEAN_MOTION,ECCENTRICITY,INCLINATION,RA_OF_ASC_NODE,ARG_OF_PERICENTER,MEAN_ANOMALY,BSTAR,MEAN_MOTION_DOT,MEAN_MOTION_DDOT,TLE_LINE0,TLE_LINE1,TLE_LINE2,SEMIMAJOR_AXIS,PERIOD,APOGEE,PERIGEE,DECAYED
51773.0,STARLINK-3624,PAYLOAD,2022-08-19 06:00:00,15.08776134,0.0001771,53.2175,48.0345,60.9575,3.6754,0.0016687,0.00026323,0.0,0 STARLINK-3624,1 51773U 22017F   22231.25001157  .00026323  00000-0  16687-2 0  9992,2 51773  53.2175  48.0345 0001771  60.9575   3.6754 15.08776134 28041,6918.076,95.442,541.1659999999998,538.715,0.0
51773.0,STARLINK-3624,PAYLOAD,2022-08-19 14:00:01,15.08835875,0.000158,53.2174,46.5354,61.4549,14.7548,-0.00073771,-0.00012008,0.0,0 STARLINK-3624,1 51773U 22017F   22231.58334491 -.00012008  00000-0 -73771-3 0  9993,2 51773  53.2174  46.5354 0001580  61.4549  14.7548 15.08835875  1300,6917.893,95.438,540.851,538.665,0.0
51773.0,STARLINK-3624,PAYLOAD,2022-08-19 16:00:00,15.08836933,0.0001612,53.2174,46.1618,58.8259,110.2802,-0.0012044,-0.00019403,0.0,0 STARLINK-3624,1 51773U 22017F   22231.66667824 -.00019403  00000-0 -12044-2 0  9992,2 51773  53.2174  46.1618 0001612  58.8259 110.2802 15.08836933 28112,6917.89,95.438,540.87,538.64,0.0
51773.0,STARLINK-3624,PAYLOAD,2022-08-19 22:00:00,15.0880802,0.0001698,53.2174,45.0406,54.2883,33.5085,0.0027102,0.00043071,0.0,0 STARLINK-3624,1 51773U 22017F   22231.91667824  .00043071  00000-0  27102-2 0  9997,2 51773  53.2174  45.0406 0001698  54.2883  33.5085 15.08808020  1300,6917.978,95.44,541.018,538.668,0.0
51773.0,STARLINK-3624,PAYLOAD,2022-08-20 14:00:01,15.08828704,0.0001675,53.2176,42.0466,63.64100000000001,47.2928,-0.00118,-0.00019013,0.0,0 STARLINK-3624,1 51773U 22017F   22232.58334491 -.00019013  00000-0 -11800-2 0  9991,2 51773  53.2176  42.0466 0001675  63.6410  47.2928 15.08828704  1309,6917.915,95.438,540.939,538.621,0.0
51773.0,STARLINK-3624,PAYLOAD,2022-08-20 22:00:00,15.08795232,0.0001751999999999,53.2174,40.5517,56.5015,66.0107,0.0032204,0.00051275,0.0,0 STARLINK-3624,1 51773U 22017F   22232.91667824  .00051275  00000-0  32204-2 0  9992,2 51773  53.2174  40.5517 0001752  56.5015  66.0107 15.08795232  1302,6918.017,95.44,541.094,538.67,0.0
51773.0,STARLINK-3624,PAYLOAD,2022-08-21 00:00:00,15.08816573,0.0001745,53.2172,40.1773,57.0583,158.3369,0.0007072,0.00010978,0.0,0 STARLINK-3624,1 51773U 22017F   22233.00001157  .00010978  00000-0  70720-3 0  9995,2 51773  53.2172  40.1773 0001745  57.0583 158.3369 15.08816573 28315,6917.9519999999975,95.439,541.024,538.61,0.0
51773.0,STARLINK-3624,PAYLOAD,2022-08-21 14:00:01,15.08843843,0.0001647,53.2175,37.5579,64.6498,80.9934,-0.0015169,-0.00024351,0.0,0 STARLINK-3624,1 51773U 22017F   22233.58334491 -.00024351  00000-0 -15169-2 0  9995,2 51773  53.2175  37.5579 0001647  64.6498  80.9934 15.08843843  1300,6917.869000000002,95.437,540.873,538.594,0.0
51773.0,STARLINK-3624,PAYLOAD,2022-08-22 00:00:00,15.08836382,0.0001699999999999,53.2168,35.6883,58.4419,191.6828,-2.8924e-05,-7.48e-06,0.0,0 STARLINK-3624,1 51773U 22017F   22234.00001157 -.00000748  00000-0 -28924-4 0  9992,2 51773  53.2168  35.6883 0001700  58.4419 191.6828 15.08836382  1305,6917.891,95.438,540.932,538.58,0.0
51773.0,STARLINK-3624,PAYLOAD,2022-08-22 06:00:00,15.08821714,0.0001567,53.217,34.5647,64.8855,103.9387,0.0016858,0.0002663,0.0,0 STARLINK-3624,1 51773U 22017F   22234.25001157  .00026630  00000-0  16858-2 0  9996,2 51773  53.2170  34.5647 0001567  64.8855 103.9387 15.08821714 28500,6917.936,95.439,540.885,538.717,0.0
51773.0,STARLINK-3624,PAYLOAD,2022-08-22 12:00:00,15.08847496,0.0001618,53.2171,33.4426,67.8831,19.6217,-0.00027648,-4.686e-05,0.0,0 STARLINK-3624,1 51773U 22017F   22234.50001157 -.00004686  00000-0 -27648-3 0  9993,2 51773  53.2171  33.4426 0001618  67.8831  19.6217 15.08847496  1307,6917.857,95.437,540.842,538.6030000000002,0.0
51773.0,STARLINK-3624,PAYLOAD,2022-08-22 22:00:00,15.08825828,0.0001709,53.2165,31.5736,58.9022,133.1093,0.0026464,0.00042065,0.0,0 STARLINK-3624,1 51773U 22017F   22234.91667824  .00042065  00000-0  26464-2 0  9992,2 51773  53.2165  31.5736 0001709  58.9022 133.1093 15.08825828  1306,6917.924,95.438,540.971,538.606,0.0
51773.0,STARLINK-3624,PAYLOAD,2022-08-23 06:00:00,15.08828941,0.0001574,53.2165,30.0754,66.1666,137.4456,0.0019750999999999,0.00031276,0.0,0 STARLINK-3624,1 51773U 22017F   22235.25001157  .00031276  00000-0  19751-2 0  9994,2 51773  53.2165  30.0754 0001574  66.1666 137.4456 15.08828941 28651,6917.9140000000025,95.438,540.868,538.69,0.0
51773.0,STARLINK-3624,PAYLOAD,2022-08-23 14:00:01,15.08863864,0.0001657,53.2166,28.5799,66.2342,148.97,-0.0016588,-0.00026608,0.0,0 STARLINK-3624,1 51773U 22017F   22235.58334491 -.00026608  00000-0 -16588-2 0  9990,2 51773  53.2166  28.5799 0001657  66.2342 148.9700 15.08863864  1302,6917.807,95.436,540.819,538.526,0.0
51773.0,STARLINK-3624,PAYLOAD,2022-08-23 22:00:01,15.08846155,0.0001686999999999,53.2163,27.0842,59.1531,167.7283,0.00082313,0.00012839,0.0,0 STARLINK-3624,1 51773U 22017F   22235.91668981  .00012839  00000-0  82313-3 0  9990,2 51773  53.2163  27.0842 0001687  59.1531 167.7283 15.08846155  1305,6917.861999999999,95.437,540.894,538.56,0.0
51773.0,STARLINK-3624,PAYLOAD,2022-08-24 14:00:01,15.0884546,0.0001588,53.2165,24.0905,63.5883,186.4245,-0.0015331,-0.00024608,0.0,0 STARLINK-3624,1 51773U 22017F   22236.58334491 -.00024608  00000-0 -15331-2 0  9994,2 51773  53.2165  24.0905 0001588  63.5883 186.4245 15.08845460  1307,6917.864000000001,95.437,540.827,538.63,0.0
51773.0,STARLINK-3624,PAYLOAD,2022-08-24 16:00:00,15.08839736,0.0001645,53.2164,23.7168,60.8425,282.0702,-0.00098005,-0.00015852,0.0,0 STARLINK-3624,1 51773U 22017F   22236.66667824 -.00015852  00000-0 -98005-3 0  9993,2 51773  53.2164  23.7168 0001645  60.8425 282.0702 15.08839736 28869,6917.880999999999,95.438,540.884,538.6080000000002,0.0
51773.0,STARLINK-3624,PAYLOAD,2022-08-24 22:00:00,15.08827783,0.0001641,53.2163,22.5949,56.8353,204.7696,0.0015734,0.00024833,0.0,0 STARLINK-3624,1 51773U 22017F   22236.91667824  .00024833  00000-0  15734-2 0  9995,2 51773  53.2163  22.5949 0001641  56.8353 204.7696 15.08827783  1305,6917.918000000002,95.438,540.918,538.648,0.0
51773.0,STARLINK-3624,PAYLOAD,2022-08-25 14:00:01,15.08855765,0.0001644,53.2168,19.6013,62.1039,222.6818,-0.0015122,-0.00024285,0.0,0 STARLINK-3624,1 51773U 22017F   22237.58334491 -.00024285  00000-0 -15122-2 0  9994,2 51773  53.2168  19.6013 0001644  62.1039 222.6818 15.08855765  1309,6917.831999999999,95.437,540.8340000000002,538.56,0.0
51773.0,STARLINK-3624,PAYLOAD,2022-08-25 16:00:00,15.08850659,0.0001706,53.2168,19.2275,59.8452,317.8441,-0.00090888,-0.00014728,0.0,0 STARLINK-3624,1 51773U 22017F   22237.66667824 -.00014728  00000-0 -90888-3 0  9996,2 51773  53.2168  19.2275 0001706  59.8452 317.8441 15.08850659 29010,6917.848000000001,95.437,540.893,538.533,0.0
51773.0,STARLINK-3624,PAYLOAD,2022-08-25 22:00:00,15.08844971,0.0001683,53.2168,18.1054,56.2499,240.14,0.00093472,0.00014621,0.0,0 STARLINK-3624,1 51773U 22017F   22237.91667824  .00014621  00000-0  93472-3 0  9996,2 51773  53.2168  18.1054 0001683  56.2499 240.1400 15.08844971  1304,6917.865,95.437,540.894,538.566,0.0
51773.0,STARLINK-3624,PAYLOAD,2022-08-26 14:00:01,15.08871481,0.0001615,53.2175,15.112,59.4899,260.1772,-0.0043311999999999,-0.00068622,0.0,0 STARLINK-3624,1 51773U 22017F   22238.58335648 -.00068622  00000-0 -43312-2 0  9995,2 51773  53.2175  15.1120 0001615  59.4899 260.1772 15.08871481  1307,6917.784000000002,95.436,540.766,538.5319999999998,0.0
51773.0,STARLINK-3624,PAYLOAD,2022-08-26 22:00:00,15.08834082,0.0001608,53.2174,13.6161,53.2542,277.9527,0.00035814,5.415e-05,0.0,0 STARLINK-3624,1 51773U 22017F   22238.91667824  .00005415  00000-0  35814-3 0  9994,2 51773  53.2174  13.6161 0001608  53.2542 277.9527 15.08834082  1303,6917.898,95.438,540.876,538.651,0.0
51773.0,STARLINK-3624,PAYLOAD,2022-08-27 14:00:01,15.08854164,0.0001588,53.2181,10.6231,57.56,296.8275,-0.0013764,-0.00022135,0.0,0 STARLINK-3624,1 51773U 22017F   22239.58334491 -.00022135  00000-0 -13764-2 0  9998,2 51773  53.2181  10.6231 0001588  57.5600 296.8275 15.08854164  1308,6917.837,95.437,540.8009999999998,538.604,0.0
51773.0,STARLINK-3624,PAYLOAD,2022-08-27 22:00:00,15.08867183,0.000156,53.2179,9.127,51.7761,314.2108,-0.0027544,-0.0004388999999999,0.0,0 STARLINK-3624,1 51773U 22017F   22239.91667824 -.00043890  00000-0 -27544-2 0  9996,2 51773  53.2179   9.1270 0001560  51.7761 314.2108 15.08867183 29355,6917.797,95.436,540.741,538.5830000000002,0.0
51773.0,STARLINK-3624,PAYLOAD,2022-08-28 14:00:01,15.08845569,0.0001478,53.2183,6.1343,54.7032,334.4792,-0.0012801,-0.00020606,0.0,0 STARLINK-3624,1 51773U 22017F   22240.58334491 -.00020606  00000-0 -12801-2 0  9992,2 51773  53.2183   6.1343 0001478  54.7032 334.4792 15.08845569  1302,6917.863,95.437,540.751,538.706,0.0
51773.0,STARLINK-3624,PAYLOAD,2022-08-28 22:00:00,15.088563199999998,0.0001508,53.218,4.638,51.0545,349.716,-0.0018475,-0.00029584,0.0,0 STARLINK-3624,1 51773U 22017F   22240.91667824 -.00029584  00000-0 -18475-2 0  9995,2 51773  53.2180   4.6380 0001508  51.0545 349.7160 15.08856320  1301,6917.831,95.437,540.739,538.6519999999998,0.0
51773.0,STARLINK-3624,PAYLOAD,2022-08-29 14:00:01,15.08828299,0.000156,53.218,1.6458,57.7209,6.2232,-0.0013660999999999,-0.00021957,0.0,0 STARLINK-3624,1 51773U 22017F   22241.58334491 -.00021957  00000-0 -13661-2 0  9998,2 51773  53.2180   1.6458 0001560  57.7209   6.2232 15.08828299  1301,6917.916,95.438,540.86,538.702,0.0
51773.0,STARLINK-3624,PAYLOAD,2022-08-29 16:00:00,15.0881797,0.0001593,53.2181,1.272,56.2688,100.5742,0.00056439,8.7e-05,0.0,0 STARLINK-3624,1 51773U 22017F   22241.66667824  .00008700  00000-0  56439-3 0  9996,2 51773  53.2181   1.2720 0001593  56.2688 100.5742 15.08817970 29624,6917.948,95.439,540.915,538.711,0.0
